#dP2020  6  4  0  0  0.00000000      96 __u+U ITR00 FIT  IAC
## 2108 345600.00000000   900.00000000 59004 0.0000000000000
+  118   C01C02C04C05C06C07C08C09C10C11C12C13C14C16C19C20C21
+        C22C23C24C25C26C27C28C29C30C32C33C34C35C36C37C38C43
+        C44E01E02E03E04E05E07E08E09E11E12E13E14E15E18E19E21
+        E24E25E26E27E30E31E33E36G01G02G03G04G05G06G07G08G09
+        G10G11G12G13G14G15G16G17G18G19G20G21G22G23G24G25G26
+        G27G28G29G30G31G32J01J02J03J07R01R02R03R04R05R07R08
+        R09R11R12R13R14R15R16R17R18R19R20R21R22R23R24R26  0
++        13 13 14 13  8  8  9  8  8  8  7  8  8  8  8  8  8
++         7  8  8  8  7  8  8  8  7  8  8  8  8  8  8 10  0
++         9  4  5  4  5  5  5  5  5  4  4  4  5  4  4  4  4
++         5  5  4  4  4  4  4  5  3  4  3  3  3  3  3  3  3
++         3  4  3  3  3  3  3  3  3  3  3  4  3  4  3  4  3
++         3  4  3  3  3  3  8  8  8 15  6  5  5  5  5  6  6
++         6  5  5  6  5  5  6  5  5  6  6  5  9  5  5  8  0
%c M  cc GPS ccc cccc cccc cccc cccc ccccc ccccc ccccc ccccc
%c cc cc ccc ccc cccc cccc cccc cccc ccccc ccccc ccccc ccccc
%f  0.0000000  0.000000000  0.00000000000  0.000000000000000
%f  0.0000000  0.000000000  0.00000000000  0.000000000000000
%i    0    0    0    0      0      0      0      0         0
%i    0    0    0    0      0      0      0      0         0
/* INFORMATION & ANALYSIS CENTER (IAC)            RAPID DATA
/* S/V CLOCKS ARE ALIGNED TO GNSS TIME                      
/* G:C1WC2W R:C1PC2P E:C1XC5X C:C2IC6I J:C1CC2S             
/* PCV:IGS14_2101 OL/AL:FES2004  NONE     YN ORB:CoN CLK:CoN
*  2020 06 04 20  0  0.00000000
PC01 -34342.218148  24484.973378    495.008961   -449.020166
PC02   4444.802084  41928.373152   -343.790758    304.517301
PC04 -39610.101969  14486.839840   -459.846496 999999.999999
PC05  21935.602849  36019.867710   -125.174355   -399.927328
PC06 -22153.678730  23922.734204  26907.993701    745.858204
PC07 -16824.249437  38123.541084   8217.905843    -88.274419
PC08  -6137.777788  23602.926473 -34242.148172   -292.051721
PC09  -3552.194172  25072.488988  33947.590555    587.696689
PC10  -5854.539719  41556.988110  -5867.256866   -271.146114
PC11  26377.641134   6290.898322  -6427.884547   -407.840401
PC12  12223.355464  14362.683262 -20532.909123    391.620435
PC13   6828.593727  32176.728753 -26149.617631    473.029030
PC14  16259.964387   3732.081054  22395.109947    491.040512
PC16 -19334.893026  24248.683188  28559.863578   -625.457279
PC19 -19665.436132   6412.367106 -18710.488962    433.916246
PC20 -10883.498604 -12130.078949 -22626.185991   -859.463703
PC21  -4780.134559  24149.588650  13190.138783   -486.212900
PC22 -17269.686152  21605.654763  -3830.264030   -791.711695
PC23   9420.544068 -15277.111209 -21361.120149   -859.941741
PC24  16361.719193  21323.316040  -7478.009337   -801.014299
PC25  18352.827436   3374.720808 -20746.559699   -640.682332
PC26   6022.544384  25634.423965   9191.217118    706.057219
PC27  -1383.216802 -15939.222763  22843.097470    341.884852
PC28  18717.987473 -10799.605272  17652.683168   -219.901404
PC29 -27817.312753    429.781654  -2170.382722    237.965504
PC30 -20798.319755 -11131.103459  14885.540296    327.165207
PC32   4593.136527 -24156.650090 -13161.355991   -882.481068
PC33  19639.263003  -6367.299722  18776.732670   -820.240366
PC34  21163.154311  11003.750744 -14514.040741   -781.160145
PC35 -18472.634444  11405.673014 -17519.441635   -812.228164
PC36 -18328.544368  -4048.522077  20673.151321   -840.048673
PC37  -4962.765374 -25668.909279  -9751.168515   -847.502442
PC38  -3029.449471  28263.448260 -31093.782921     81.691232
PC43      0.000000      0.000000      0.000000 999999.999999
PC44   1736.140350  16025.905317 -22788.963605   -256.570091
PE01   8362.176816  25910.110910 -11618.047050   -870.898730
PE02  -8411.004415 -25863.296591  11692.064625    138.143447
PE03  -8237.813070 -15045.537217 -24116.187712   -306.241579
PE04  23745.533923    199.096100  17680.971617   -539.279902
PE05  12315.513252 -21266.086435 -16487.932217   -374.396014
PE07 -25499.083663  15030.530318   -682.436592   -391.240885
PE08 -23807.028510    252.773723 -17588.837205   6168.458264
PE09  25365.174725 -15226.148432    623.081531   6039.056773
PE11  20430.095351  -4716.030956  20893.466134   3255.639152
PE12  27149.537151  10716.440105   4992.912500   5771.379792
PE13 -20532.918245   4573.699692 -20819.352368    401.350438
PE14  -5391.134882 -13961.286876  18020.836360  -1038.082659
PE15 -27188.626831 -10470.097499  -5202.871300    864.657356
PE18   4796.356877  20122.203280 -25134.790286  -1138.410585
PE19   6018.476291  16137.424301  24084.214083  -3152.779525
PE21  -3826.019250  28537.485373   6873.403115   -602.756567
PE24  14256.863452 -14197.236785 -21728.933462   5419.705920
PE25   3909.374818 -28492.467579  -6996.879732   -511.651062
PE26  -1548.432148  17242.235011 -24009.795908   3110.536060
PE27 -14051.064787  14512.273670  21637.861969    205.424297
PE30 -15910.692904  -8458.796169  23475.053116   3852.320197
PE31  15967.031066   7967.186845 -23612.076707   -472.759823
PE33  17884.718066  19368.910005 -13467.904677   -466.485755
PE36   1836.306392 -16926.440618  24213.524901    551.225105
PG01  21432.579107  14246.689605   7020.016855   -387.763924
PG02 -10315.071138 -20866.798499  13477.826602   -466.966275
PG03  13668.502588   7028.843276  21608.352459   -198.266679
PG04  24152.361913   1716.984884  10965.119065    -98.289754
PG05  -3278.893765 -23732.054381 -11386.365609    -14.006080
PG06    773.545261 -17663.823906  19856.415980   -283.388405
PG07  18007.583070  -1564.914794 -19311.101909   -296.928518
PG08  16284.164732   8732.173244 -19162.814154    -36.392485
PG09  25446.575793  -7636.481470    313.886893   -230.293330
PG10 -11601.258093  22015.608881  -8848.580899   -361.669466
PG11  21908.334822  12860.020103  -7667.030348   -257.945765
PG12 -12632.096662  -8295.036734  21621.170463    109.911983
PG13  -7864.050777 -13729.155209 -21464.111315     15.612124
PG14  -7916.150044  15940.012474  20007.832919     -8.202873
PG15 -17867.964136  -7690.848752 -18555.083081   -226.501580
PG16   2033.232850  22584.829178 -13670.545005   -166.471177
PG17  17011.720605 -14192.930110  15036.291641    275.674709
PG18 -17746.906704   1564.425867 -19716.500542    210.694135
PG19  10063.304536 -14904.285882  19235.047106   -149.576828
PG20 -14717.074150  12858.394438 -17965.743993    527.576328
PG21 -12411.644908   8990.005606 -20933.834573      7.461427
PG22  11386.806708  15791.165752  18342.244653   -779.558100
PG23  23927.807456 -11022.015746  -4457.566971   -108.528069
PG24 -22175.290758 -14107.707721   4817.111456    -13.898632
PG25 -15655.701014   2944.009144  20971.161851      9.999497
PG26  -4375.851714  26037.288801  -1396.126627    219.319750
PG27   5048.349523  14050.728200 -22115.938200   -311.987063
PG28  12400.527298 -22472.322545  -6534.370805    711.514959
PG29 -26111.855615   3162.173632   3744.128590   -120.360133
PG30  10013.783380 -12119.937294 -21354.312382   -234.793103
PG31   -153.667233  18579.731169  18761.115169    -46.969987
PG32 -15516.467460  15599.430485  14856.662034    293.907023
PJ01 -27290.355640  31818.287494   -342.095556   -292.550236
PJ02 -25536.434291  25029.619268  27249.074993     -0.344016
PJ03 -33045.098359  17830.641289 -14464.372627     -3.725687
PJ07 -25378.124168  33678.102619    -13.581755      0.008993
PR01  -4153.364378  17402.839305  18196.132709     62.578447
PR02  12661.677882   1993.998462  22108.311763    430.029689
PR03  19352.297532 -12449.782551  11104.222136     16.222035
PR04  14994.641214 -19705.472456  -6096.141191     51.573361
PR05   2292.422027 -15806.093548 -19879.466199     51.717306
PR07 -19344.148443  12851.914493 -10463.918250    -37.241390
PR08 -14924.950580  19735.092337   6232.568183    -52.646596
PR09 -12942.583017 -10987.044272  19023.306648    136.281723
PR11  -1822.849761  20295.052770  15392.575700    -25.960204
PR12   7229.718018  24451.346256   -222.878916    136.404977
PR13  12658.474931  14740.156572 -16547.130881    -39.591328
PR14  10427.633731  -3623.392060 -22984.225400     51.931374
PR15   2283.219267 -19665.779896 -16064.152638    106.632633
PR16  -8001.780218 -24274.359702    816.187348     -3.939507
PR17  22904.865725    537.267347  11180.540331    330.422469
PR18  10266.714737  -7633.777821  22087.366842     37.724076
PR19  -7203.979004 -11918.347189  21365.826030    -96.462986
PR20 -22659.581579  -9528.179137   6727.343953   -413.441370
PR21 -22506.718846   -136.861384 -12031.963543   -129.152593
PR22  -7553.235150   8568.890860 -22792.485740   4910.259889
PR23  14105.125619  11854.060160 -17655.206625    310.026836
PR24  23017.678579   9237.812511  -5928.057306      1.430257
PR26 -20380.176553 -10490.558845  11225.855874   -393.594240
EOF
